PERSEUS-M1              
1 40039U 14033AF  26177.80385245  .00001957  00000+0  18133-3 0  9995
2 40039  97.9648 122.0936 0009811 265.1759  94.8341 14.95664314652070
POLYITAN-1              
1 40042U 14033AJ  26177.97115546  .00020174  00000+0  62227-3 0  9997
2 40042  98.0938 205.1586 0008867 115.0294 245.1868 15.33592281655095
TIGRISAT                
1 40043U 14033AK  26177.68284905  .00001731  00000+0  20385-3 0  9999
2 40043  97.7842 327.4774 0050124  44.7680 315.7563 14.85194115647034
AEROCUBE 6A             
1 40045U 14033AM  26177.90853883  .00004950  00000+0  41608-3 0  9990
2 40045  97.7228 344.7555 0038170 344.2075  15.7954 14.98187339648076
AEROCUBE 6B             
1 40046U 14033AN  26177.70123221  .00004617  00000+0  37409-3 0  9999
2 40046  97.7227 344.3618 0037740 336.0186  23.9278 14.99648140648181
CANX-4                  
1 40055U 14034C   26177.87911898  .00000903  00000+0  12302-3 0  9992
2 40055  98.3111  53.5474 0012419 346.2589  13.8283 14.81280989645966
CANX-5                  
1 40056U 14034D   26177.60724345  .00000848  00000+0  11591-3 0  9990
2 40056  98.3114  53.3098 0012441 347.3875  12.7023 14.81297429636737
UKUBE-1                 
1 40074U 14037F   26177.95219198  .00009082  00000+0  50852-3 0  9998
2 40074  98.4236 182.2506 0003059 116.7089 243.4453 15.13699275650039
BRITE-PL2 (HEWELIUSZ)   
1 40119U 14049B   26177.87987069  .00001747  00000+0  16647-3 0  9995
2 40119  97.9107 289.9549 0015360  78.9285 281.3661 14.94629153642890
AEROCUBE 5C             
1 40965U 15058B   26177.49106786  .00002073  00000+0  19034-3 0  9998
2 40965  64.7664 233.6456 0131217  59.6399 301.7611 14.91488513367047
AEROCUBE 7              
1 40966U 15058C   26177.52765350  .00003200  00000+0  26110-3 0  9997
2 40966  64.7607 215.5583 0120940  57.9886 303.2911 14.95774878367358
FOX-1A (AO-85)          
1 40967U 15058D   26177.80996918  .00002228  00000+0  20611-3 0  9994
2 40967  64.7748 249.0783 0131024  52.8500 308.4494 14.91008064115000
SINOD-D 1               
1 40968U 15058E   26177.43763045  .00003234  00000+0  26324-3 0  9992
2 40968  64.7739 229.9429 0119663  49.4285 311.7170 14.95955298118041
SNAP-3 ALICE            
1 40970U 15058G   26177.97457701  .00158240  00000+0  17058-2 0  9994
2 40970  64.7505  70.0444 0024772   5.5562 354.5855 15.62556243118412
LMRST-SAT               
1 40971U 15058H   26177.90191410  .00001868  00000+0  17639-3 0  9999
2 40971  64.7743 245.1493 0132628  54.8471 306.4983 14.90625518115004
SNAP-3 EDDIE            
1 40972U 15058J   26177.95677566  .00141927  00000+0  14631-2 0  9995
2 40972  64.7423  60.7571 0025305   9.3086 350.8525 15.63731431120552
PROPCUBE 3              
1 40973U 15058K   26177.51207931  .00002709  00000+0  23025-3 0  9995
2 40973  64.7672 223.4003 0124548  56.2341 305.0563 14.94300275116191
BISONSAT                
1 40974U 15058L   26177.92635102  .00015811  00000+0  75359-3 0  9991
2 40974  64.7571 142.1508 0080203  43.3397 317.3997 15.16431805117090
SNAP-3 JIMI             
1 40975U 15058M   26177.37549378  .00006148  00000+0  42149-3 0  9994
2 40975  64.7632 190.6990 0106633  51.6805 309.3839 15.02378366115602
PROPCUBE 1 (FLORA)      
1 40976U 15058N   26177.66430592  .00001953  00000+0  19095-3 0  9997
2 40976  64.7749 265.8631 0131268  57.2315 304.1365 14.89258404117679
SINOD-D 3               
1 40977U 15058P   26177.47831819  .00002825  00000+0  24358-3 0  9991
2 40977  64.7720 246.8052 0119787  54.4457 306.7753 14.94063839116145
HORYU-4                 
1 41340U 16012D   26177.84961613  .01084955  65487-3  12212-2 0  9998
2 41340  30.9825   7.5384 0008816 329.4490  30.5661 16.08207360572369
RAVAN                   
1 41849U 16067B   26177.95295976  .00056284  00000+0  81761-3 0  9991
2 41849  97.9878  68.6594 0002661 357.9218   2.2023 15.55621120529210
CELTEE 1                
1 41850U 16067C   26177.88599896  .00005600  00000+0  26530-3 0  9992
2 41850  98.0666  45.1147 0001479 128.8503 231.2862 15.19772348527358
OPTICUBE 04             
1 41851U 16067D   26177.49103693  .00002168  00000+0  13858-3 0  9991
2 41851  98.0694  30.2600 0017023  86.7343 273.5832 15.09695294526577
AEROCUBE 8D             
1 41852U 16067E   26177.14809934  .00008298  00000+0  34051-3 0  9993
2 41852  98.0682  48.0013 0005022 102.1384 258.0415 15.24514880527433
AEROCUBE 8C             
1 41853U 16067F   26177.89348964  .00008099  00000+0  32979-3 0  9993
2 41853  98.0548  46.0183 0006050  42.3441 317.8261 15.24778663527548
CORVUS BC2              
1 42846U 17042X   26177.95987070  .00002964  00000+0  20502-3 0  9998
2 42846  97.4070 338.9304 0014681  80.4438 279.8448 15.06354829488533
CORVUS BC1              
1 42847U 17042Y   26177.68771928  .00002780  00000+0  19183-3 0  9991
2 42847  97.4096 339.4890 0013119  60.2631 299.9900 15.06515349488525
MAKERSAT 0              
1 43016U 17073D   26177.91057634  .00017641  00000+0  47543-3 0  9994
2 43016  97.4620  60.5069 0104796 237.7644 121.3407 15.32402666467954
